[{"OBJECT_NAME":"OBJECT A","OBJECT_ID":"2025-013A","EPOCH":"2026-03-09T23:29:31.895232","MEAN_MOTION":15.29260221,"ECCENTRICITY":0.0010321,"INCLINATION":97.6364,"RA_OF_ASC_NODE":244.5149,"ARG_OF_PERICENTER":282.3775,"MEAN_ANOMALY":77.6309,"EPHEMERIS_TYPE":0,"CLASSIFICATION_TYPE":"U","NORAD_CAT_ID":62729,"ELEMENT_SET_NO":999,"REV_AT_EPOCH":6276,"BSTAR":0.0013206527,"MEAN_MOTION_DOT":0.00037616,"MEAN_MOTION_DDOT":0},{"OBJECT_NAME":"STARLINK-35364","OBJECT_ID":"2025-221T","EPOCH":"2026-03-09T13:36:26.824032","MEAN_MOTION":15.30160346,"ECCENTRICITY":0.0001812,"INCLINATION":53.1605,"RA_OF_ASC_NODE":88.979,"ARG_OF_PERICENTER":90.1398,"MEAN_ANOMALY":269.981,"EPHEMERIS_TYPE":0,"CLASSIFICATION_TYPE":"U","NORAD_CAT_ID":65840,"ELEMENT_SET_NO":999,"REV_AT_EPOCH":2471,"BSTAR":0.001189,"MEAN_MOTION_DOT":0.00034978,"MEAN_MOTION_DDOT":0}]
